IONOSFERA-M 2           
1 61736U 24199B   26154.93650758  .00000066  00000+0  49308-4 0  9998
2 61736  98.7187  28.1583 0001543  50.9364 309.1951 14.22754926128946
PRSC-EO1                
1 62725U 25012A   26154.27983293  .00009097  00000+0  45362-3 0  9990
2 62725  97.4226 227.0114 0004074 321.0187  39.0752 15.17750222 76087
BIOMASS                 
1 63772U 25090A   26154.53339523  .00000656  00000+0  12416-3 0  9995
2 63772  98.0754 342.0522 0001410  55.4846 304.6491 14.67535983 58681
GOSAT-GW (IBUKI GW)     
1 64694U 25141A   26154.89475375  .00000847  00000+0  15782-3 0  9992
2 64694  98.0569  92.4281 0001418  82.6761 277.4605 14.67551101 49890
IONOSFERA-M 3           
1 64876U 25155A   26154.94233839  .00000059  00000+0  46438-4 0  9990
2 64876  98.6019 117.1813 0000203 196.0617 164.0554 14.21484065 44528
IONOSFERA-M 4           
1 64877U 25155B   26154.90681196  .00000063  00000+0  48507-4 0  9994
2 64877  98.6024 117.0643 0000610 107.9729 252.1515 14.21486176 44512
MICROCARB               
1 64899U 25156A   26154.62550243  .00000608  00000+0  10393-3 0  9992
2 64899  97.9831 232.0047 0015345 319.3110  40.6950 14.72310853 45972
CO3D 3                  
1 64900U 25156B   26154.89142732  .00003283  00000+0  15475-3 0  9992
2 64900  97.4327 233.7758 0000955 142.5459 217.5843 15.20193956 47515
CO3D 4                  
1 64901U 25156C   26154.89159550  .00005241  00000+0  24509-3 0  9993
2 64901  97.4329 233.7756 0001069  39.8117 320.3196 15.20195662 47512
CO3D 2                  
1 64902U 25156D   26154.85823721  .00003955  00000+0  18572-3 0  9991
2 64902  97.4328 233.6421 0001303 119.8547 240.2818 15.20200239 47504
CO3D 1                  
1 64903U 25156E   26154.72673916  .00004997  00000+0  23374-3 0  9990
2 64903  97.4327 233.5125 0001095 122.8085 237.3256 15.20213649 47482
PRSC-S1                 
1 65055U 25164A   26154.93770247  .00005313  00000+0  36643-3 0  9992
2 65055  41.1316   2.4261 0007637 267.4450  92.5490 15.06328784 46435
SENTINEL-6B             
1 66514U 25264A   26154.42254216 -.00000054  00000+0  29153-4 0  9998
2 66514  66.0384 163.7680 0008061 269.3306  90.6786 12.80929579 25405
CAS500-3                
1 66655U 25274F   26154.29821958  .00001529  00000+0  17126-3 0  9996
2 66655  97.7446  82.6656 0005900 147.8006 212.3573 14.88285530 28085
CSG-3                   
1 67304U 26001A   26154.96695861  .00000369  00000+0  52940-4 0  9998
2 67304  97.8885 338.7605 0001305  93.6829 266.4533 14.82159327 22505
PRSC-E03                
1 68835U 26092A   26154.93286491  .00002260  00000+0  15690-3 0  9992
2 68835  37.9993 167.8357 0005373 276.4028  83.6122 15.06604894  5950
CAS500-2                
1 69013U 26100AK  26154.26636628  .00006342  00000+0  29353-3 0  9994
2 69013  97.4080  52.3641 0011661  77.8085 282.4456 15.20411306  4693
