OBJECT_NAME,OBJECT_ID,EPOCH,MEAN_MOTION,ECCENTRICITY,INCLINATION,RA_OF_ASC_NODE,ARG_OF_PERICENTER,MEAN_ANOMALY,EPHEMERIS_TYPE,CLASSIFICATION_TYPE,NORAD_CAT_ID,ELEMENT_SET_NO,REV_AT_EPOCH,BSTAR,MEAN_MOTION_DOT,MEAN_MOTION_DDOT
IONOSFERA-M 2,2024-199B,2026-06-03T22:28:34.254912,14.22754926,.00015436,98.7187,28.1583,50.9364,309.1951,0,U,61736,999,12894,.49307798E-4,.66E-6,0
PRSC-EO1,2025-012A,2026-06-03T06:42:57.565152,15.17750222,.0004074,97.4226,227.0114,321.0187,39.0752,0,U,62725,999,7608,.45362E-3,.9097E-4,0
BIOMASS,2025-090A,2026-06-03T12:48:05.347872,14.67535983,.00014103,98.0754,342.0522,55.4846,304.6491,0,U,63772,999,5868,.12415773E-3,.656E-5,0
GOSAT-GW (IBUKI GW),2025-141A,2026-06-03T21:28:26.724000,14.67551101,.00014187,98.0569,92.4281,82.6761,277.4605,0,U,64694,999,4989,.15781847E-3,.847E-5,0
IONOSFERA-M 3,2025-155A,2026-06-03T22:36:58.036896,14.21484065,.00002032,98.6019,117.1813,196.0617,164.0554,0,U,64876,999,4452,.46437849E-4,.59E-6,0
IONOSFERA-M 4,2025-155B,2026-06-03T21:45:48.553344,14.21486176,.00006102,98.6024,117.0643,107.9729,252.1515,0,U,64877,999,4451,.48506755E-4,.63E-6,0
MICROCARB,2025-156A,2026-06-03T15:00:43.409952,14.72310853,.0015345,97.9831,232.0047,319.3110,40.6950,0,U,64899,999,4597,.10392882E-3,.608E-5,0
CO3D 3,2025-156B,2026-06-03T21:23:39.320448,15.20193956,.00009556,97.4327,233.7758,142.5459,217.5843,0,U,64900,999,4751,.15475023E-3,.3283E-4,0
CO3D 4,2025-156C,2026-06-03T21:23:53.851200,15.20195662,.0001069,97.4329,233.7756,39.8117,320.3196,0,U,64901,999,4751,.24509336E-3,.5241E-4,0
CO3D 2,2025-156D,2026-06-03T20:35:51.694944,15.20200239,.00013033,97.4328,233.6421,119.8547,240.2818,0,U,64902,999,4750,.1857225E-3,.3955E-4,0
CO3D 1,2025-156E,2026-06-03T17:26:30.263424,15.20213649,.00010952,97.4327,233.5125,122.8085,237.3256,0,U,64903,999,4748,.2337393E-3,.4997E-4,0
PRSC-S1,2025-164A,2026-06-03T22:30:17.493408,15.06328784,.00076379,41.1316,2.4261,267.4450,92.5490,0,U,65055,999,4643,.36642822E-3,.5313E-4,0
SENTINEL-6B,2025-264A,2026-06-03T10:08:27.642624,12.80929579,.00080617,66.0384,163.7680,269.3306,90.6786,0,U,66514,999,2540,.29153494E-4,-.54E-6,0
CAS500-3,2025-274F,2026-06-03T07:09:26.171712,14.88285530,.00059004,97.7446,82.6656,147.8006,212.3573,0,U,66655,999,2808,.17126146E-3,.1529E-4,0
CSG-3,2026-001A,2026-06-03T23:12:25.223904,14.82159327,.00013056,97.8885,338.7605,93.6829,266.4533,0,U,67304,999,2250,.52939738E-4,.369E-5,0
PRSC-E03,2026-092A,2026-06-03T22:23:19.528224,15.06604894,.00053731,37.9993,167.8357,276.4028,83.6122,0,U,68835,999,595,.15689543E-3,.226E-4,0
CAS500-2,2026-100AK,2026-06-03T06:23:34.046592,15.20411306,.00116619,97.4080,52.3641,77.8085,282.4456,0,U,69013,999,469,.29353194E-3,.6342E-4,0
